GLOBALSTAR M065         
1 31571U 07020A   23304.60079118 -.00000045  00000+0  33177-3 0  9993
2 31571  51.9889 235.9109 0010786  71.7320 100.6267 12.61956839758338
GLOBALSTAR M069         
1 31573U 07020C   23304.93183545 -.00000038  00000+0  36899-3 0  9997
2 31573  51.9942 191.0281 0001043  67.5832 306.1625 12.62259761759502
GLOBALSTAR M072         
1 31574U 07020D   23305.18075653 -.00000064  00000+0  21931-3 0  9996
2 31574  52.0084 286.0054 0000529  44.8323  37.6947 12.62267780757967
GLOBALSTAR M071         
1 31576U 07020F   23304.95874208 -.00000026  00000+0  43580-3 0  9997
2 31576  52.0057 195.9352 0000685  53.8266 320.0215 12.62271873420699
GLOBALSTAR M063 [+]     
1 26081U 00008A   23304.58936316 -.00000029  00000+0  77907-3 0  9992
2 26081  51.9946 237.4949 0003871 260.0221 270.8978 11.86146681 87012
GLOBALSTAR M062 [-]     
1 26082U 00008B   23304.70642144 -.00000082  00000+0  11517-3 0  9994
2 26082  51.9864  43.8991 0006110 281.6932 225.7056 12.43419718422663
GLOBALSTAR M060 [-]     
1 26083U 00008C   23304.35560097  .00000076  00000+0  16597-2 0  9996
2 26083  52.0017 280.7917 0003891   3.2074 145.1858 12.17617681 79904
GLOBALSTAR M064 [-]     
1 26084U 00008D   23304.47011616 -.00000048  00000+0  49982-3 0  9993
2 26084  52.0053 343.6523 0001412   4.8564 355.2282 11.88511214 96495
